STARLINK-2426           
1 47836U 21018BB  26068.73125604  .00005782  00000+0  20717-3 0  9991
2 47836  53.1591 244.8074 0001254  73.0469 287.0670 15.30201942276703
PHISAT 2                
1 60470U 24149C   26068.78834181  .00008925  00000+0  31421-3 0  9996
2 60470  97.3806 148.6498 0001175 168.6230 191.5037 15.29548631 86792
